H1 CPF 01  gfz 2021 07 02 12  6832 terrasarx 
H2 0702601  6201 31698    2021 07 02 12 59 42 2021 07 07 00 00 42   120 1 1  0 0 0
H9
10 0 59397  63342.000000  0    6493469.193   1004640.592  -2079703.847
10 0 59397  63462.000000  0    6731227.323    856255.666  -1201763.619
10 0 59397  63582.000000  0    6848706.996    689812.576   -302693.708
10 0 59397  63702.000000  0    6843506.362    510334.963    601701.146
10 0 59397  63822.000000  0    6715477.348    323102.595   1495503.146
10 0 59397  63942.000000  0    6466736.471    133517.677   2362970.724
10 0 59397  64062.000000  0    6101628.077    -53030.529   3188825.341
10 0 59397  64182.000000  0    5626642.968   -231300.617   3958527.966
10 0 59397  64302.000000  0    5050294.375   -396327.985   4658539.090
10 0 59397  64422.000000  0    4382956.939   -543546.690   5276559.857
10 0 59397  64542.000000  0    3636668.149   -668900.716   5801747.279
10 0 59397  64662.000000  0    2824902.046   -768940.913   6224899.981
10 0 59397  64782.000000  0    1962318.871   -840907.191   6538613.956
10 0 59397  64902.000000  0    1064496.002   -882794.012   6737406.976
10 0 59397  65022.000000  0     147642.712   -893398.095   6817809.152
10 0 59397  65142.000000  0    -771693.319   -872347.064   6778418.332
10 0 59397  65262.000000  0   -1676923.524   -820109.345   6619922.159
10 0 59397  65382.000000  0   -2551716.196   -737984.188   6345086.414
10 0 59397  65502.000000  0   -3380289.822   -628072.501   5958710.497
10 0 59397  65622.000000  0   -4147699.740   -493228.803   5467550.173
10 0 59397  65742.000000  0   -4840112.936   -336995.666   4880206.058
10 0 59397  65862.000000  0   -5445064.644   -163521.186   4206978.084
10 0 59397  65982.000000  0   -5951691.334     22538.776   3459688.465
10 0 59397  66102.000000  0   -6350934.792    216131.763   2651476.389
10 0 59397  66222.000000  0   -6635714.661    411931.307   1796566.922
10 0 59397  66342.000000  0   -6801063.321    604467.416    910016.683
10 0 59397  66462.000000  0   -6844219.422    788261.570      7441.746
10 0 59397  66582.000000  0   -6764676.669    957963.441   -895266.485
10 0 59397  66702.000000  0   -6564185.908   1108485.295  -1782230.226
10 0 59397  66822.000000  0   -6246712.922   1235130.425  -2637871.342
10 0 59397  66942.000000  0   -5818353.849   1333714.056  -3447192.363
10 0 59397  67062.000000  0   -5287205.396   1400671.276  -4196043.684
10 0 59397  67182.000000  0   -4663198.701   1433150.414  -4871369.479
10 0 59397  67302.000000  0   -3957901.242   1429090.104  -5461430.226
10 0 59397  67422.000000  0   -3184292.351   1387278.403  -5955997.794
10 0 59397  67542.000000  0   -2356517.910   1307392.605  -6346522.382
10 0 59397  67662.000000  0   -1489628.231   1190020.063  -6626269.243
10 0 59397  67782.000000  0    -599304.166   1036659.844  -6790422.855
10 0 59397  67902.000000  0     298421.707    849704.629  -6836159.732
10 0 59397  68022.000000  0    1187445.628    632404.398  -6762692.400
10 0 59397  68142.000000  0    2051875.644    388810.985  -6571283.650
10 0 59397  68262.000000  0    2876309.694    123704.706  -6265226.503
10 0 59397  68382.000000  0    3646105.821   -157495.365  -5849793.792
10 0 59397  68502.000000  0    4347639.565   -448837.558  -5332155.431
10 0 59397  68622.000000  0    4968546.149   -743957.451  -4721266.883
10 0 59397  68742.000000  0    5497945.107  -1036210.636  -4027725.804
10 0 59397  68862.000000  0    5926639.737  -1318815.268  -3263597.725
10 0 59397  68982.000000  0    6247287.964  -1585002.013  -2442213.548
10 0 59397  69102.000000  0    6454540.441  -1828168.206  -1577941.026
10 0 59397  69222.000000  0    6545141.337  -2042032.212   -685933.445
10 0 59397  69342.000000  0    6517988.907  -2220783.940    218139.194
10 0 59397  69462.000000  0    6374153.760  -2359228.337   1118372.292
10 0 59397  69582.000000  0    6116853.138  -2452916.767   1998914.057
10 0 59397  69702.000000  0    5751381.070  -2498264.346   2844254.993
10 0 59397  69822.000000  0    5284997.144  -2492648.739   3639509.336
10 0 59397  69942.000000  0    4726775.150  -2434488.077   4370682.923
10 0 59397  70062.000000  0    4087419.569  -2323296.501   5024921.457
10 0 59397  70182.000000  0    3379052.868  -2159717.295   5590738.357
10 0 59397  70302.000000  0    2614975.860  -1945531.380   6058214.232
10 0 59397  70422.000000  0    1809411.264  -1683641.435   6419165.321
10 0 59397  70542.000000  0     977234.259  -1378033.313   6667280.940
10 0 59397  70662.000000  0     133694.724  -1033714.642   6798228.000
10 0 59397  70782.000000  0    -705862.958   -656631.556   6809721.177
10 0 59397  70902.000000  0   -1526277.834   -253565.851   6701559.531
10 0 59397  71022.000000  0   -2312844.832    167986.652   6475629.781
10 0 59397  71142.000000  0   -3051577.470    599954.797   6135875.967
10 0 59397  71262.000000  0   -3729457.555   1033845.366   5688235.593
10 0 59397  71382.000000  0   -4334668.472   1460908.531   5140542.379
10 0 59397  71502.000000  0   -4856807.384   1872313.090   4502395.106
10 0 59397  71622.000000  0   -5287071.602   2259328.631   3784993.959
10 0 59397  71742.000000  0   -5618414.735   2613509.882   3000946.545
10 0 59397  71862.000000  0   -5845669.638   2926879.548   2164047.323
10 0 59397  71982.000000  0   -5965636.114   3192105.675   1289033.081
10 0 59397  72102.000000  0   -5977129.670   3402669.301    391317.218
10 0 59397  72222.000000  0   -5880987.971   3553016.559   -513289.782
10 0 59397  72342.000000  0   -5680037.195   3638691.979  -1408867.258
10 0 59397  72462.000000  0   -5379019.016   3656450.469  -2279673.950
10 0 59397  72582.000000  0   -4984477.102   3604343.315  -3110433.171
10 0 59397  72702.000000  0   -4504609.187   3481777.235  -3886605.455
10 0 59397  72822.000000  0   -3949088.307   3289544.943  -4594643.361
10 0 59397  72942.000000  0   -3328859.851   3029827.849  -5222224.266
10 0 59397  73062.000000  0   -2655919.164   2706171.045  -5758456.644
10 0 59397  73182.000000  0   -1943076.084   2323432.769  -6194059.956
10 0 59397  73302.000000  0   -1203708.007   1887707.813  -6521514.601
10 0 59397  73422.000000  0    -451509.915   1406227.993  -6735179.285
10 0 59397  73542.000000  0     299755.302    887241.671  -6831378.137
10 0 59397  73662.000000  0    1036501.945    339874.621  -6808457.317
10 0 59397  73782.000000  0    1745562.444   -226027.229  -6666811.767
10 0 59397  73902.000000  0    2414417.230   -800070.852  -6408877.712
10 0 59397  74022.000000  0    3031411.318  -1371501.884  -6039095.830
10 0 59397  74142.000000  0    3585955.349  -1929400.779  -5563842.419
10 0 59397  74262.000000  0    4068708.735  -2462887.554  -4991331.431
10 0 59397  74382.000000  0    4471741.702  -2961333.214  -4331483.187
10 0 59397  74502.000000  0    4788670.776  -3414571.438  -3595762.537
10 0 59397  74622.000000  0    5014767.452  -3813106.706  -2796988.992
10 0 59397  74742.000000  0    5147037.143  -4148315.521  -1949119.027
10 0 59397  74862.000000  0    5184264.416  -4412634.558  -1067003.970
10 0 59397  74982.000000  0    5127023.675  -4599732.065   -166127.945
10 0 59397  75102.000000  0    4977653.101  -4704657.565    737669.450
10 0 59397  75222.000000  0    4740192.525  -4723964.336   1628480.004
10 0 59397  75342.000000  0    4420286.243  -4655801.471   2490616.001
10 0 59397  75462.000000  0    4025054.267  -4499973.696   3308894.556
10 0 59397  75582.000000  0    3562934.954  -4257967.742   4068912.036
10 0 59397  75702.000000  0    3043502.185  -3932944.205   4757302.453
10 0 59397  75822.000000  0    2477263.167  -3529694.709   5361973.927
10 0 59397  75942.000000  0    1875442.166  -3054567.528   5872319.900
10 0 59397  76062.000000  0    1249753.734  -2515361.776   6279401.669
10 0 59397  76182.000000  0     612172.022  -1921194.440   6576098.607
10 0 59397  76302.000000  0     -25299.898  -1282342.882   6757226.401
10 0 59397  76422.000000  0    -650855.574   -610064.882   6819622.349
10 0 59397  76542.000000  0   -1253102.730     83600.860   6762196.813
10 0 59397  76662.000000  0   -1821269.972    786049.912   6585950.992
10 0 59397  76782.000000  0   -2345398.924   1484340.394   6293960.529
10 0 59397  76902.000000  0   -2816519.311   2165430.457   5891325.228
10 0 59397  77022.000000  0   -3226804.079   2816421.906   5385085.925
10 0 59397  77142.000000  0   -3569702.967   3424806.349   4784107.810
10 0 59397  77262.000000  0   -3840051.499   3978708.585   4098930.908
10 0 59397  77382.000000  0   -4034152.640   4467123.476   3341589.630
10 0 59397  77502.000000  0   -4149829.375   4880140.784   2525402.996
10 0 59397  77622.000000  0   -4186446.004   5209151.505   1664738.185
10 0 59397  77742.000000  0   -4144897.901   5447030.802    774753.685
10 0 59397  77862.000000  0   -4027571.009   5588293.710   -128873.517
10 0 59397  77982.000000  0   -3838270.626   5629219.897  -1030233.213
10 0 59397  78102.000000  0   -3582119.925   5567941.543  -1913472.864
10 0 59397  78222.000000  0   -3265431.635   5404492.409  -2763085.037
10 0 59397  78342.000000  0   -2895556.746   5140819.409  -3564185.146
10 0 59397  78462.000000  0   -2480715.991   4780754.391  -4302774.485
10 0 59397  78582.000000  0   -2029817.324   4329949.424  -4965982.552
10 0 59397  78702.000000  0   -1552265.012   3795778.908  -5542284.201
10 0 59397  78822.000000  0   -1057764.822   3187211.313  -6021692.040
10 0 59397  78942.000000  0    -556128.085   2514651.023  -6395920.078
10 0 59397  79062.000000  0     -57079.368   1789755.483  -6658514.916
10 0 59397  79182.000000  0     429927.536   1025232.434  -6804956.184
10 0 59397  79302.000000  0     895884.094    234619.491  -6832726.692
10 0 59397  79422.000000  0    1332390.069   -567951.379  -6741351.063
10 0 59397  79542.000000  0    1731800.827  -1368001.020  -6532401.411
10 0 59397  79662.000000  0    2087357.965  -2150957.074  -6209473.059
10 0 59397  79782.000000  0    2393302.624  -2902412.852  -5778129.981
99
